0 YAMAL 202
1 28089U 03053A   25237.84790285 -.00000087  00000-0  00000-0 0  9996
2 28089   5.5929  74.5349 0004594 103.2290 265.3339  1.00271466 79745
